[{"OBJECT_NAME":"TOMORROW-S2","OBJECT_ID":"2024-149T","EPOCH":"2026-03-09T18:02:42.746496","MEAN_MOTION":15.30674935,"ECCENTRICITY":0.0001648,"INCLINATION":97.3857,"RA_OF_ASC_NODE":150.0385,"ARG_OF_PERICENTER":234.3331,"MEAN_ANOMALY":125.7757,"EPHEMERIS_TYPE":0,"CLASSIFICATION_TYPE":"U","NORAD_CAT_ID":60485,"ELEMENT_SET_NO":999,"REV_AT_EPOCH":8686,"BSTAR":0.00027683033,"MEAN_MOTION_DOT":8.133e-5,"MEAN_MOTION_DDOT":0},{"OBJECT_NAME":"STARLINK-35847","OBJECT_ID":"2025-271E","EPOCH":"2026-03-09T11:49:00.027552","MEAN_MOTION":15.30195077,"ECCENTRICITY":0.00010077,"INCLINATION":53.1575,"RA_OF_ASC_NODE":141.0478,"ARG_OF_PERICENTER":81.261,"MEAN_ANOMALY":278.8505,"EPHEMERIS_TYPE":0,"CLASSIFICATION_TYPE":"U","NORAD_CAT_ID":66621,"ELEMENT_SET_NO":999,"REV_AT_EPOCH":1753,"BSTAR":0.00076012104,"MEAN_MOTION_DOT":0.00022217,"MEAN_MOTION_DDOT":0}]
